OBJECT_NAME,OBJECT_ID,EPOCH,MEAN_MOTION,ECCENTRICITY,INCLINATION,RA_OF_ASC_NODE,ARG_OF_PERICENTER,MEAN_ANOMALY,EPHEMERIS_TYPE,CLASSIFICATION_TYPE,NORAD_CAT_ID,ELEMENT_SET_NO,REV_AT_EPOCH,BSTAR,MEAN_MOTION_DOT,MEAN_MOTION_DDOT
PERSEUS-M1,2014-033AF,2026-06-16T13:37:41.325888,14.95629129,.00103592,97.9641,111.6894,303.7441,56.2791,0,U,40039,999,65054,.11191065E-3,.1183E-4,0
POLYITAN-1,2014-033AJ,2026-06-16T14:17:26.492064,15.33237814,.00085971,98.0938,193.8005,143.0549,217.1284,0,U,40042,999,65350,.4461352E-3,.14265E-3,0
TIGRISAT,2014-033AK,2026-06-16T08:59:38.107968,14.85160382,.00506092,97.7829,317.4045,77.8381,282.8497,0,U,40043,999,64550,.21114101E-3,.1794E-4,0
AEROCUBE 6A,2014-033AM,2026-06-16T10:08:18.015936,14.98103799,.00389785,97.7241,334.3787,20.7070,339.5721,0,U,40045,999,64650,.40126971E-3,.4765E-4,0
AEROCUBE 6B,2014-033AN,2026-06-16T10:12:43.595712,14.99564253,.00383599,97.7239,334.1705,11.9853,348.2274,0,U,40046,999,64664,.35054987E-3,.4315E-4,0
CANX-4,2014-034C,2026-06-16T14:40:32.856960,14.81263782,.00132114,98.3123,42.9035,18.8491,341.3207,0,U,40055,999,64444,.10412025E-3,.755E-5,0
CANX-5,2014-034D,2026-06-16T14:38:18.060864,14.81281049,.00132204,98.3124,42.9454,19.0203,341.1499,0,U,40056,999,63525,.10525873E-3,.764E-5,0
UKUBE-1,2014-037F,2026-06-16T13:45:29.511936,15.13544703,.00025827,98.4228,170.7806,133.5977,226.5466,0,U,40074,999,64846,.37045701E-3,.6564E-4,0
BRITE-PL2 (HEWELIUSZ),2014-049B,2026-06-16T07:14:54.064032,14.94590679,.0015251,97.9097,279.2951,111.1081,249.1771,0,U,40119,999,64131,.13881E-3,.1445E-4,0
AEROCUBE 5C,2015-058B,2026-06-16T13:36:58.695264,14.91451378,.01307068,64.7678,264.5189,63.5118,297.9330,0,U,40965,999,36556,.16971585E-3,.1823E-4,0
AEROCUBE 7,2015-058C,2026-06-16T13:34:14.868768,14.95722382,.01204473,64.7621,246.7636,61.9442,299.3790,0,U,40966,999,36586,.21828589E-3,.2637E-4,0
FOX-1A (AO-85),2015-058D,2026-06-16T13:08:38.207616,14.90967049,.01304208,64.7762,280.9713,56.8350,304.5193,0,U,40967,999,11347,.17773093E-3,.1891E-4,0
SINOD-D 1,2015-058E,2026-06-16T13:02:36.430944,14.95902577,.01189955,64.7755,260.9285,53.3352,307.8630,0,U,40968,999,11656,.21747691E-3,.263E-4,0
SNAP-3 ALICE,2015-058G,2026-06-16T12:47:03.274656,15.59920827,.00283865,64.7502,106.1936,13.2096,346.9786,0,U,40970,999,11678,.11857653E-2,.98982E-3,0
LMRST-SAT,2015-058H,2026-06-16T13:40:39.047232,14.90587532,.01320381,64.7766,277.2387,58.8558,302.5425,0,U,40971,999,11346,.16643184E-3,.1747E-4,0
SNAP-3 EDDIE,2015-058J,2026-06-16T12:33:30.696480,15.61204333,.00278768,64.7428,96.9558,17.1991,343.0093,0,U,40972,999,11892,.12322649E-2,.10815E-2,0
PROPCUBE 3,2015-058K,2026-06-16T14:34:04.518336,14.94254741,.0124001,64.7686,254.3486,60.1418,301.1951,0,U,40973,999,11471,.18873259E-3,.2181E-4,0
BISONSAT,2015-058L,2026-06-16T10:32:57.154560,15.16175131,.00789698,64.7577,176.0618,47.5799,313.1969,0,U,40974,999,11550,.47789809E-3,.9836E-4,0
SNAP-3 JIMI,2015-058M,2026-06-16T12:33:51.252768,15.02292927,.01061307,64.7636,221.8726,55.6297,305.4803,0,U,40975,999,11412,.24427636E-3,.3465E-4,0
PROPCUBE 1 (FLORA),2015-058N,2026-06-16T14:11:38.100480,14.89219906,.01307191,64.7756,297.0822,61.1567,300.2591,0,U,40976,999,11617,.18215932E-3,.1851E-4,0
SINOD-D 3,2015-058P,2026-06-16T13:43:10.677504,14.94013042,.01192354,64.7732,277.7412,58.3733,302.8949,0,U,40977,999,11466,.22838582E-3,.2629E-4,0
HORYU-4,2016-012D,2026-06-15T10:27:05.146272,15.94546005,.00051492,30.9849,91.8834,261.3375,98.6703,0,U,41340,999,57053,.9799184E-3,.392649E-2,.54782598E-4
RAVAN,2016-067B,2026-06-16T14:14:05.726112,15.54628424,.00045243,97.9886,57.0966,33.9338,326.2203,0,U,41849,999,52760,.61553765E-3,.40766E-3,0
CELTEE 1,2016-067C,2026-06-16T14:44:52.904544,15.19677910,.00009002,98.0668,34.1424,125.4140,234.7177,0,U,41850,999,52579,.19281173E-3,.4036E-4,0
OPTICUBE 04,2016-067D,2026-06-16T13:10:27.957216,15.09656156,.00168204,98.0694,19.7994,117.6470,242.6467,0,U,41851,999,52507,.12996702E-3,.2026E-4,0
AEROCUBE 8D,2016-067E,2026-06-16T13:33:19.634112,15.24390236,.00046684,98.0677,37.6889,124.6524,235.5152,0,U,41852,999,52597,.23333221E-3,.5637E-4,0
AEROCUBE 8C,2016-067F,2026-06-16T14:09:27.394560,15.24638799,.00066245,98.0548,34.9442,70.6674,289.5278,0,U,41853,999,52597,.24931672E-3,.6076E-4,0
CORVUS BC2,2017-042X,2026-06-16T09:32:41.160768,15.06292307,.0014273,97.4061,328.7777,113.0054,247.2680,0,U,42846,999,48694,.24808207E-3,.3593E-4,0
CORVUS BC1,2017-042Y,2026-06-16T12:36:20.949408,15.06463332,.00133047,97.4097,329.7141,91.1918,269.0834,0,U,42847,999,48699,.21905217E-3,.3179E-4,0
MAKERSAT 0,2017-073D,2026-06-16T09:30:30.085920,15.32078089,.01051278,97.4625,49.9092,275.8487,83.0779,0,U,43016,999,46634,.40126732E-3,.14722E-3,0
